[{"OBJECT_NAME":"JILIN-1 GAOFEN 03D47","OBJECT_ID":"2022-167L","EPOCH":"2026-03-09T22:56:46.924224","MEAN_MOTION":15.31686941,"ECCENTRICITY":0.00089304,"INCLINATION":97.6835,"RA_OF_ASC_NODE":234.6581,"ARG_OF_PERICENTER":110.4031,"MEAN_ANOMALY":249.8169,"EPHEMERIS_TYPE":0,"CLASSIFICATION_TYPE":"U","NORAD_CAT_ID":54692,"ELEMENT_SET_NO":999,"REV_AT_EPOCH":18014,"BSTAR":0.00047294748,"MEAN_MOTION_DOT":0.00014417,"MEAN_MOTION_DDOT":0},{"OBJECT_NAME":"STARLINK-36091","OBJECT_ID":"2025-281A","EPOCH":"2026-03-09T04:18:42.042528","MEAN_MOTION":15.27588939,"ECCENTRICITY":0.00021245,"INCLINATION":43.0012,"RA_OF_ASC_NODE":346.6908,"ARG_OF_PERICENTER":234.1897,"MEAN_ANOMALY":125.8758,"EPHEMERIS_TYPE":0,"CLASSIFICATION_TYPE":"U","NORAD_CAT_ID":66848,"ELEMENT_SET_NO":999,"REV_AT_EPOCH":1478,"BSTAR":0.00099324701,"MEAN_MOTION_DOT":0.00027179,"MEAN_MOTION_DDOT":0}]
